     3.02           N: GNSS NAV DATA    C: BDS              RINEX VERSION / TYPE
CHC                 CHC                 20220602 033024 UTC PGM / RUN BY / DATE 
     4                                                      LEAP SECONDS        
                                                            END OF HEADER       
C19 2022  6  2  3  0  0  8.63477122039D-04 -4.59721150037D-12  0.00000000000D+00
      1.00000000000D+00 -4.66406250000D+01  3.58122060078D-09  1.91432535671D+00
     -2.37300992012D-06  9.99334151857D-04  1.04336068034D-05  5.28262796402D+03
      3.56400000000D+05 -6.05359673500D-09 -2.34407923464D+00 -2.65426933765D-08
      9.69414551436D-01  1.55546875000D+02 -1.03433455189D+00 -6.43669668568D-09
      5.39665336370D-10  0.00000000000D+00  8.56000000000D+02  0.00000000000D+00
      9.65000000000D+00  0.00000000000D+00  1.18000000000D-08  1.18000000000D-08
      8.20465200000D+08  1.00000000000D+00  0.00000000000D+00  0.00000000000D+00
C22 2022  6  2  3  0  0 -9.66364284977D-04  2.14406270516D-12  0.00000000000D+00
      1.00000000000D+00 -5.86562500000D+01  3.66336687965D-09  2.93884012512D-01
     -2.77999788523D-06  6.70142238960D-04  1.04368664324D-05  5.28262577438D+03
      3.56400000000D+05 -2.60770320892D-08 -2.34207905697D+00  2.00234353542D-08
      9.68697458252D-01  1.56859375000D+02 -2.06779150507D-01 -6.42598195366D-09
      5.64309220030D-10  0.00000000000D+00  8.56000000000D+02  0.00000000000D+00
      9.65000000000D+00  0.00000000000D+00  1.59000000000D-08  1.59000000000D-08
      8.20465200000D+08  1.00000000000D+00  0.00000000000D+00  0.00000000000D+00
C23 2022  6  2  3  0  0 -9.31602437049D-04 -1.76569869836D-12  0.00000000000D+00
      1.00000000000D+00  2.40625000000D+00  4.09731352670D-09  2.90371073242D+00
      1.75554305315D-07  2.31077778153D-04  8.59284773469D-06  5.28261857224D+03
      3.56400000000D+05  6.05359673500D-09 -2.42157233426D-01  6.98491930962D-09
      9.47657183806D-01  1.78343750000D+02 -1.72804385653D+00 -6.74170939069D-09
     -6.51812864908D-10  0.00000000000D+00  8.56000000000D+02  0.00000000000D+00
      9.65000000000D+00  0.00000000000D+00  2.45000000000D-08  2.45000000000D-08
      8.20465200000D+08  1.00000000000D+00  0.00000000000D+00  0.00000000000D+00
C24 2022  6  2  3  0  0 -9.72765381448D-04  1.43174361256D-12  0.00000000000D+00
      1.00000000000D+00  8.45312500000D+00  4.05552607180D-09  2.38417247662D+00
      1.57859176397D-07  4.32071392424D-04  8.69575887918D-06  5.28261356926D+03
      3.56400000000D+05 -9.77888703346D-09 -2.42341142710D-01 -3.44589352608D-08
      9.47650259814D-01  1.79390625000D+02  3.92982804420D-01 -6.67527805212D-09
     -7.30387566431D-10  0.00000000000D+00  8.56000000000D+02  0.00000000000D+00
      9.65000000000D+00  0.00000000000D+00  6.70000000000D-09  6.70000000000D-09
      8.20465200000D+08  1.00000000000D+00  0.00000000000D+00  0.00000000000D+00
C25 2022  6  2  3  0  0 -7.27927777916D-04  5.48805445533D-12  0.00000000000D+00
      1.00000000000D+00  4.78125000000D+00  4.02766776853D-09  1.54923757955D+00
      2.13272869587D-07  3.90915432945D-04  8.49133357406D-06  5.28261895943D+03
      3.56400000000D+05 -3.21306288242D-08 -2.67111376958D-01 -1.21071934700D-08
      9.49005562714D-01  1.84437500000D+02  3.87167988861D-01 -6.67563520986D-09
     -6.78242537238D-10  0.00000000000D+00  8.56000000000D+02  0.00000000000D+00
      9.65000000000D+00  0.00000000000D+00  2.00000000000D-10  2.00000000000D-10
      8.20465200000D+08  1.00000000000D+00  0.00000000000D+00  0.00000000000D+00
C26 2022  6  2  3  0  0  7.29357823730D-04 -5.35216315711D-12  0.00000000000D+00
      1.00000000000D+00  9.96875000000D+00  4.08767026787D-09  3.10363389101D+00
      3.72994691133D-07  6.97906478308D-04  8.17142426968D-06  5.28261913109D+03
      3.56400000000D+05 -1.39698386192D-09 -2.66530556056D-01 -4.79631125927D-08
      9.49057433400D-01  1.86453125000D+02  3.96979955969D-01 -6.70206488219D-09
     -7.24673042684D-10  0.00000000000D+00  8.56000000000D+02  0.00000000000D+00
      9.65000000000D+00  0.00000000000D+00 -5.40000000000D-09 -5.40000000000D-09
      8.20465200000D+08  1.00000000000D+00  0.00000000000D+00  0.00000000000D+00
C34 2022  6  2  3  0  0 -3.90147091821D-04  8.84448070337D-12  0.00000000000D+00
      1.00000000000D+00  5.35312500000D+01  3.76765693803D-09 -2.06941013615D-01
      2.69478186965D-06  6.46978733130D-04 -2.62167304754D-07  5.28262348366D+03
      3.56400000000D+05 -1.90921127796D-08  1.82634176809D+00  2.88709998131D-08
      9.61796962910D-01  3.66906250000D+02  7.98810627909D-01 -7.12208237760D-09
      1.93936649668D-10  0.00000000000D+00  8.56000000000D+02  0.00000000000D+00
      9.65000000000D+00  0.00000000000D+00 -6.90000000000D-09 -6.90000000000D-09
      8.20465200000D+08  1.00000000000D+00  0.00000000000D+00  0.00000000000D+00
C35 2022  6  2  3  0  0  3.01575753838D-04  1.74713576939D-11  0.00000000000D+00
      1.00000000000D+00  4.54062500000D+01  3.88230457071D-09  1.66868958497D+00
      2.18534842134D-06  7.72646279074D-04 -9.94652509689D-07  5.28261747169D+03
      3.56400000000D+05  1.39698386192D-08  1.82623378572D+00 -4.14438545704D-08
      9.61865415773D-01  3.80078125000D+02  5.31971559985D-01 -7.20137139460D-09
      1.27862468842D-10  0.00000000000D+00  8.56000000000D+02  0.00000000000D+00
      9.65000000000D+00  0.00000000000D+00 -3.30000000000D-09 -3.30000000000D-09
      8.20465200000D+08  1.00000000000D+00  0.00000000000D+00  0.00000000000D+00
C38 2022  6  2  3  0  0  2.32248567045D-07  2.81019651993D-12  0.00000000000D+00
      1.00000000000D+00 -8.00203125000D+02  4.41804117201D-10  2.88647619108D+00
     -2.55461782217D-05  1.84255465865D-03  1.15623697639D-06  6.49367576599D+03
      3.56400000000D+05  8.31671059132D-07  2.90901163949D+00  7.23171979189D-07
      9.87403074901D-01  2.24281250000D+02 -2.87473902085D+00 -1.60042380693D-09
     -2.88583449230D-10  0.00000000000D+00  8.56000000000D+02  0.00000000000D+00
      9.65000000000D+00  0.00000000000D+00  2.00000000000D-09  2.00000000000D-09
      8.20465200000D+08  1.00000000000D+00  0.00000000000D+00  0.00000000000D+00
C40 2022  6  2  3  0  0  2.74025835097D-04  3.17701420727D-12  0.00000000000D+00
      1.00000000000D+00  8.40921875000D+02  3.78587198248D-10 -9.21298305372D-01
      2.71094031632D-05  2.32191209216D-03  1.37519091368D-05  6.49369944382D+03
      3.56400000000D+05 -1.17346644402D-07  8.72841873802D-01 -2.93832272291D-07
      1.00018524555D+00 -1.61468750000D+02  2.97051759437D+00 -1.62363905966D-09
     -2.07151485834D-11  0.00000000000D+00  8.56000000000D+02  0.00000000000D+00
      9.65000000000D+00  0.00000000000D+00  9.00000000000D-10  9.00000000000D-10
      8.20465200000D+08  1.00000000000D+00  0.00000000000D+00  0.00000000000D+00
C43 2022  6  2  3  0  0 -9.20603983104D-04  2.25153229394D-12  0.00000000000D+00
      1.00000000000D+00  4.86406250000D+01  3.89980529969D-09 -8.69552369375D-01
      2.58814543486D-06  5.94415701926D-04 -3.72529029846D-09  5.28261557961D+03
      3.56400000000D+05 -6.51925802231D-09  1.82650131393D+00  1.30385160446D-08
      9.58778626441D-01  3.57812500000D+02  7.23666759671D-01 -7.15744099329D-09
      1.87507810453D-10  0.00000000000D+00  8.56000000000D+02  0.00000000000D+00
      9.65000000000D+00  0.00000000000D+00 -4.00000000000D-09 -4.00000000000D-09
      8.20465200000D+08  1.00000000000D+00  0.00000000000D+00  0.00000000000D+00
C44 2022  6  2  3  0  0  6.78963959217D-04  1.22764021171D-11  0.00000000000D+00
      1.00000000000D+00  5.03906250000D+01  3.89337646047D-09  7.70909844061D-01
      2.44844704866D-06  7.94984283857D-04 -7.30622559786D-07  5.28262219810D+03
      3.56400000000D+05 -6.42612576485D-08  1.82664472526D+00 -4.19095158577D-08
      9.59233523744D-01  3.75640625000D+02  6.25401719886D-01 -7.16386983251D-09
      1.37148569931D-10  0.00000000000D+00  8.56000000000D+02  0.00000000000D+00
      9.65000000000D+00  0.00000000000D+00 -2.00000000000D-09 -2.00000000000D-09
      8.20465200000D+08  1.00000000000D+00  0.00000000000D+00  0.00000000000D+00
C59 2022  6  2  3  0  0 -7.05826096237D-07  7.10542735760D-15  0.00000000000D+00
      1.00000000000D+00  5.68671875000D+02  6.64384817152D-09 -1.21376905417D+00
      1.84774398804D-05  3.31498915330D-04  1.10487453640D-05  6.49349598885D+03
      3.56400000000D+05  6.98491930962D-08 -2.16152538286D+00  6.28642737865D-08
      9.68404750288D-02 -3.40171875000D+02  3.92497851465D-01 -5.42665461338D-09
      9.44682206949D-10  0.00000000000D+00  8.56000000000D+02  0.00000000000D+00
      9.65000000000D+00  0.00000000000D+00  4.14000000000D-08  4.14000000000D-08
      8.20465200000D+08  1.00000000000D+00  0.00000000000D+00  0.00000000000D+00
C60 2022  6  2  3  0  0 -8.93021933734D-07 -1.11022302463D-13  0.00000000000D+00
      1.00000000000D+00 -6.75468750000D+01  1.59792370279D-09 -1.44000747283D+00
     -2.13319435716D-06  4.42051212303D-04  2.04797834158D-05  6.49339743805D+03
      3.56400000000D+05  7.26431608200D-08 -2.71158175265D+00  2.84984707832D-07
      7.30268078025D-02 -6.25453125000D+02  1.20569194991D-01 -4.81091467962D-10
      7.66103339851D-10  0.00000000000D+00  8.56000000000D+02  0.00000000000D+00
      9.65000000000D+00  1.00000000000D+00  4.95000000000D-08  4.95000000000D-08
      8.20465200000D+08  1.00000000000D+00  0.00000000000D+00  0.00000000000D+00
